GLOBALSTAR M069         
1 31573U 07020C   26167.97094683 -.00000049  00000+0  40676-3 0  9995
2 31573  52.0027 252.7393 0002345 147.5623  23.4801 12.23471251878773
GLOBALSTAR M072         
1 31574U 07020D   26168.05722854 -.00000098  00000+0 -19779-3 0  9999
2 31574  51.9927 100.5909 0001413 332.3655 114.4421 11.91658386874964
GLOBALSTAR M066         
1 32265U 07048C   26167.98393721 -.00000146  00000+0 -43696-3 0  9994
2 32265  51.9604  58.4957 0005491  43.5933 329.5715 12.30387614860202
GLOBALSTAR M079         
1 37188U 10054A   26168.06160103 -.00000110  00000+0 -34998-4 0  9997
2 37188  52.0034 109.0517 0000712  23.9896  57.7910 12.62266083722537
GLOBALSTAR M074         
1 37189U 10054B   26168.15219353 -.00000114  00000+0 -56501-4 0  9998
2 37189  52.0008 108.0404 0000544  51.8526 322.0293 12.62268376723154
GLOBALSTAR M076         
1 37190U 10054C   26168.10050203 -.00000117  00000+0 -74510-4 0  9995
2 37190  52.0021 108.4009 0000724  42.4598 336.4883 12.62261791722866
GLOBALSTAR M077         
1 37191U 10054D   26167.80613808 -.00000082  00000+0 -69950-4 0  9991
2 37191  51.9920 180.2632 0002736 171.8680 359.2215 11.67547816721092
GLOBALSTAR M075         
1 37192U 10054E   26168.12687205 -.00000126  00000+0 -12383-3 0  9996
2 37192  51.9921 150.3759 0000171  24.5950  54.1451 12.62267358721939
GLOBALSTAR M073         
1 37193U 10054F   26168.03365279 -.00000084  00000+0  10957-3 0  9998
2 37193  52.0071  64.7596 0000926  47.1670 326.2489 12.62262251723914
GLOBALSTAR M083         
1 37739U 11033A   26167.88824558 -.00000087  00000+0  93562-4 0  9991
2 37739  51.9876  13.4315 0000930  66.7070 307.1051 12.62263121692912
GLOBALSTAR M088         
1 37740U 11033B   26168.05671880 -.00000081  00000+0  12631-3 0  9992
2 37740  52.0220 279.3476 0000703 126.7491  51.3446 12.62268738688473
GLOBALSTAR M091         
1 37741U 11033C   26167.98896332 -.00000077  00000+0  14932-3 0  9996
2 37741  51.9992 242.5197 0000306 152.8449  18.1858 12.62263949689256
GLOBALSTAR M085         
1 37742U 11033D   26167.81729558 -.00000099  00000+0  28746-4 0  9997
2 37742  52.0102 194.3332 0000120 286.8831 243.7708 12.62264155689748
GLOBALSTAR M081         
1 37743U 11033E   26167.84379970 -.00000090  00000+0  79180-4 0  9999
2 37743  51.9933 196.6891 0000114 101.4890  69.3007 12.62265089689891
GLOBALSTAR M089         
1 37744U 11033F   26168.09989603 -.00000118  00000+0 -81212-4 0  9999
2 37744  51.9906 150.0670 0000359  85.5297 350.4415 12.62267232690773
GLOBALSTAR M084         
1 38040U 11080A   26167.86175808 -.00000096  00000+0  43676-4 0  9995
2 38040  52.0028  18.2729 0001092  85.4616 287.7820 12.62267534668726
GLOBALSTAR M080         
1 38041U 11080B   26167.83306361 -.00000087  00000+0  93085-4 0  9992
2 38041  52.0080  20.0785 0000381  69.9121 302.9167 12.62269418668846
GLOBALSTAR M082         
1 38042U 11080C   26168.19991847 -.00000103  00000+0  34952-5 0  9990
2 38042  52.0101 334.4629 0000533  97.6302  73.0978 12.62263580669591
GLOBALSTAR M092         
1 38043U 11080D   26167.98066816 -.00000096  00000+0  44854-4 0  9998
2 38043  52.0095  65.5265 0000696  62.7662 310.1853 12.62266955668027
GLOBALSTAR M090         
1 38044U 11080E   26168.22664928 -.00000101  00000+0  16658-4 0  9993
2 38044  52.0142 328.3371 0000790  91.7049  79.5707 12.62269064669710
GLOBALSTAR M086         
1 38045U 11080F   26168.16933979 -.00000093  00000+0  57855-4 0  9996
2 38045  51.9915 328.4416 0001690  67.6654 104.0457 12.62286720669659
GLOBALSTAR M097         
1 39072U 13005A   26167.92532733 -.00000080  00000+0  13392-3 0  9995
2 39072  52.0039 244.1344 0000298 127.5377 232.5517 12.62247244616872
GLOBALSTAR M093         
1 39073U 13005B   26167.89854649 -.00000075  00000+0  16263-3 0  9999
2 39073  52.0097 237.5621 0000193  92.0696 268.0192 12.62265977616826
GLOBALSTAR M094         
1 39074U 13005C   26168.21517829 -.00000129  00000+0 -14224-3 0  9999
2 39074  51.9929 150.7134 0000407   2.4046 357.6823 12.62268548618472
GLOBALSTAR M096         
1 39075U 13005D   26167.83273601 -.00000094  00000+0  53333-4 0  9999
2 39075  52.0050 200.6804 0000041 269.8164  90.2698 12.62265650617349
GLOBALSTAR M078         
1 39076U 13005E   26167.64738218 -.00000168  00000+0 -35933-3 0  9997
2 39076  51.9887 285.2545 0000522 226.2981 133.7842 12.62257688615945
GLOBALSTAR M095         
1 39077U 13005F   26167.99086948 -.00000085  00000+0  10658-3 0  9996
2 39077  52.0092 281.8127 0000232 131.4086 228.6801 12.62263436615841
GLOBALSTAR M087         
1 52888U 22064A   26168.00410979 -.00000090  00000+0  74538-4 0  9998
2 52888  52.0009  63.0098 0000754  38.7488 321.3432 12.62269051191114
